$$SOE
2460721.500000000, A.D. 2025-Feb-15 00:00:00.0000, -2.423994388349184E+08, -2.979203925327304E+08, -3.769422616832703E+06,
2460728.500000000, A.D. 2025-Feb-22 00:00:00.0000, -2.344971039006419E+08, -3.046742100504889E+08, -3.475598191582650E+06,
2460735.500000000, A.D. 2025-Mar-01 00:00:00.0000, -2.263944818633362E+08, -3.111678732175067E+08, -3.178805007010639E+06,
2460742.500000000, A.D. 2025-Mar-08 00:00:00.0000, -2.180990046072069E+08, -3.173965418937008E+08, -2.879304100407362E+06,
2460749.500000000, A.D. 2025-Mar-15 00:00:00.0000, -2.096181591287478E+08, -3.233555257145845E+08, -2.577356521373391E+06,
2460756.500000000, A.D. 2025-Mar-22 00:00:00.0000, -2.009594907921673E+08, -3.290402806736284E+08, -2.273223148009360E+06,
2460763.500000000, A.D. 2025-Mar-29 00:00:00.0000, -1.921306054435114E+08, -3.344464082645307E+08, -1.967164815610960E+06,
2460770.500000000, A.D. 2025-Apr-05 00:00:00.0000, -1.831391700458786E+08, -3.395696540515888E+08, -1.659442531060755E+06,
2460777.500000000, A.D. 2025-Apr-12 00:00:00.0000, -1.739929137500458E+08, -3.444059055690026E+08, -1.350317587442383E+06,
2460784.500000000, A.D. 2025-Apr-19 00:00:00.0000, -1.646996295763658E+08, -3.489511904341289E+08, -1.040051633381411E+06,
2460791.500000000, A.D. 2025-Apr-26 00:00:00.0000, -1.552671764251485E+08, -3.532016748804870E+08, -7.289067383057177E+05,
2460798.500000000, A.D. 2025-May-03 00:00:00.0000, -1.457034812904498E+08, -3.571536626934598E+08, -4.171454622025788E+05,
2460805.500000000, A.D. 2025-May-10 00:00:00.0000, -1.360165416365521E+08, -3.608035945419726E+08, -1.050309314989448E+05,
2460812.500000000, A.D. 2025-May-17 00:00:00.0000, -1.262144278869423E+08, -3.641480477500214E+08, 2.071730724271685E+05,
2460819.500000000, A.D. 2025-May-24 00:00:00.0000, -1.163052858376014E+08, -3.671837365683477E+08, 5.192019917295873E+05,
2460826.500000000, A.D. 2025-May-31 00:00:00.0000, -1.062973385640154E+08, -3.699075126448194E+08, 8.307903246498406E+05,
2460833.500000000, A.D. 2025-Jun-07 00:00:00.0000, -9.619888821272145E+07, -3.723163644992647E+08, 1.141671547612041E+06,
2460840.500000000, A.D. 2025-Jun-14 00:00:00.0000, -8.601832003233016E+07, -3.744074166777703E+08, 1.451578289682329E+06,
2460847.500000000, A.D. 2025-Jun-21 00:00:00.0000, -7.576410741530536E+07, -3.761779318651083E+08, 1.760242380882144E+06,
2460854.500000000, A.D. 2025-Jun-28 00:00:00.0000, -6.544481480891678E+07, -3.776253142008716E+08, 2.067394632187575E+06,
2460861.500000000, A.D. 2025-Jul-05 00:00:00.0000, -5.506909999863799E+07, -3.787471116549798E+08, 2.372764663282424E+06,
2460868.500000000, A.D. 2025-Jul-12 00:00:00.0000, -4.464571694130507E+07, -3.795410182804702E+08, 2.676080822225034E+06,
2460875.500000000, A.D. 2025-Jul-19 00:00:00.0000, -3.418351894470028E+07, -3.800048769316550E+08, 2.977070133353174E+06,
2460882.500000000, A.D. 2025-Jul-26 00:00:00.0000, -2.369146196941821E+07, -3.801366825170141E+08, 3.275458250203639E+06,
2460889.500000000, A.D. 2025-Aug-02 00:00:00.0000, -1.317860797179202E+07, -3.799345857777936E+08, 3.570969409770876E+06,
2460896.500000000, A.D. 2025-Aug-09 00:00:00.0000, -2.654128246530892E+06, -3.793968976206911E+08, 3.863326385361552E+06,
2460903.500000000, A.D. 2025-Aug-16 00:00:00.0000, 7.872693327119385E+06, -3.785220940833935E+08, 4.152250426685870E+06,
2460910.500000000, A.D. 2025-Aug-23 00:00:00.0000, 1.839245744845141E+07, -3.773088219329314E+08, 4.437461162819996E+06,
2460917.500000000, A.D. 2025-Aug-30 00:00:00.0000, 2.889564731809926E+07, -3.757559041993320E+08, 4.718676497441351E+06,
2460924.500000000, A.D. 2025-Sep-06 00:00:00.0000, 3.937262592588136E+07, -3.738623446602483E+08, 4.995612709343404E+06,
2460931.500000000, A.D. 2025-Sep-13 00:00:00.0000, 4.981363105919663E+07, -3.716273337741015E+08, 5.267984709572732E+06,
2460938.500000000, A.D. 2025-Sep-20 00:00:00.0000, 6.020877133536600E+07, -3.690502577219753E+08, 5.535506021547019E+06,
2460945.500000000, A.D. 2025-Sep-27 00:00:00.0000, 7.054802434918268E+07, -3.661307074657285E+08, 5.797888642628655E+06,
2460952.500000000, A.D. 2025-Oct-04 00:00:00.0000, 8.082123495339742E+07, -3.628684873024639E+08, 6.054843017673939E+06,
2460959.500000000, A.D. 2025-Oct-11 00:00:00.0000, 9.101811333570693E+07, -3.592636238765910E+08, 6.306078083224505E+06,
2460966.500000000, A.D. 2025-Oct-18 00:00:00.0000, 1.011282332164511E+08, -3.553163759414826E+08, 6.551301335353941E+06,
2460973.500000000, A.D. 2025-Oct-25 00:00:00.0000, 1.111410303503439E+08, -3.510272448763815E+08, 6.790218910694674E+06,
2460980.500000000, A.D. 2025-Nov-01 00:00:00.0000, 1.210458014192349E+08, -3.463969859578890E+08, 7.022535679573342E+06,
2460987.500000000, A.D. 2025-Nov-08 00:00:00.0000, 1.308317034031712E+08, -3.414266204305012E+08, 7.247955346692443E+06,
2460994.500000000, A.D. 2025-Nov-15 00:00:00.0000, 1.404877536361620E+08, -3.361174484476205E+08, 7.466180542441756E+06,
2461001.500000000, A.D. 2025-Nov-22 00:00:00.0000, 1.500028310125098E+08, -3.304710626761466E+08, 7.676912887806252E+06,
2461008.500000000, A.D. 2025-Nov-29 00:00:00.0000, 1.593656782572642E+08, -3.244893614411437E+08, 7.879853141827404E+06,
2461015.500000000, A.D. 2025-Dec-06 00:00:00.0000, 1.685649030540068E+08, -3.181745615532009E+08, 8.074701631381109E+06,
2461022.500000000, A.D. 2025-Dec-13 00:00:00.0000, 1.775889785400889E+08, -3.115292141887216E+08, 8.261158649774283E+06,
2461029.500000000, A.D. 2025-Dec-20 00:00:00.0000, 1.864262467473308E+08, -3.045562227963782E+08, 8.438924589354724E+06,
2461036.500000000, A.D. 2025-Dec-27 00:00:00.0000, 1.950649240062421E+08, -2.972588604332975E+08, 8.607700121033743E+06,
2461043.500000000, A.D. 2026-Jan-03 00:00:00.0000, 2.034931069514259E+08, -2.896407871365297E+08, 8.767186507268846E+06,
2461050.500000000, A.D. 2026-Jan-10 00:00:00.0000, 2.116987793396137E+08, -2.817060679917082E+08, 8.917085986163408E+06,
2461057.500000000, A.D. 2026-Jan-17 00:00:00.0000, 2.196698200185302E+08, -2.734591919652647E+08, 9.057102201151386E+06,
2461064.500000000, A.D. 2026-Jan-24 00:00:00.0000, 2.273940122328897E+08, -2.649050914413051E+08, 9.186940673956111E+06,
2461071.500000000, A.D. 2026-Jan-31 00:00:00.0000, 2.348590544027092E+08, -2.560491624193455E+08, 9.306309320231467E+06,
2461078.500000000, A.D. 2026-Feb-07 00:00:00.0000, 2.420525725547426E+08, -2.468972853620451E+08, 9.414918998901650E+06,
2461085.500000000, A.D. 2026-Feb-14 00:00:00.0000, 2.489621347923518E+08, -2.374558466267946E+08, 9.512484072424725E+06,
2461092.500000000, A.D. 2026-Feb-21 00:00:00.0000, 2.555752683355994E+08, -2.277317598169975E+08, 9.598722993062183E+06,
2461099.500000000, A.D. 2026-Feb-28 00:00:00.0000, 2.618794781928335E+08, -2.177324858066949E+08, 9.673359113617301E+06,
2461106.500000000, A.D. 2026-Mar-07 00:00:00.0000, 2.678622655443451E+08, -2.074660532782357E+08, 9.736121755945116E+06,
2461113.500000000, A.D. 2026-Mar-14 00:00:00.0000, 2.735111487478077E+08, -1.969410819681067E+08, 9.786747094356462E+06,
2461120.500000000, A.D. 2026-Mar-21 00:00:00.0000, 2.788136888836911E+08, -1.861668055605642E+08, 9.824978929202452E+06,
2461127.500000000, A.D. 2026-Mar-28 00:00:00.0000, 2.837575179661356E+08, -1.751530930165946E+08, 9.850569621002302E+06,
2461134.500000000, A.D. 2026-Apr-04 00:00:00.0000, 2.883303693449210E+08, -1.639104690960909E+08, 9.863281163186513E+06,
2461141.500000000, A.D. 2026-Apr-11 00:00:00.0000, 2.925201106933181E+08, -1.524501341994883E+08, 9.862886340040423E+06,
2461148.500000000, A.D. 2026-Apr-18 00:00:00.0000, 2.963147798506196E+08, -1.407839832751209E+08, 9.849169955305450E+06,
2461155.500000000, A.D. 2026-Apr-25 00:00:00.0000, 2.997026236596425E+08, -1.289246234899185E+08, 9.821930128449358E+06,
2461162.500000000, A.D. 2026-May-02 00:00:00.0000, 3.026721399044208E+08, -1.168853903780360E+08, 9.780979652520396E+06,
2461169.500000000, A.D. 2026-May-09 00:00:00.0000, 3.052121225202246E+08, -1.046803621906264E+08, 9.726147394427087E+06,
2461176.500000000, A.D. 2026-May-16 00:00:00.0000, 3.073117104682580E+08, -9.232437193409263E+07, 9.657279710156374E+06,
2461183.500000000, A.D. 2026-May-23 00:00:00.0000, 3.089604403106701E+08, -7.983301566938598E+07, 9.574241949200764E+06,
2461190.500000000, A.D. 2026-May-30 00:00:00.0000, 3.101483003589219E+08, -6.722265632903041E+07, 9.476920260441117E+06,
2461197.500000000, A.D. 2026-Jun-06 00:00:00.0000, 3.108657859765230E+08, -5.451042588544326E+07, 9.365223453646624E+06,
2461204.500000000, A.D. 2026-Jun-13 00:00:00.0000, 3.111039595378889E+08, -4.171422520742529E+07, 9.239084586031519E+06,
2461211.500000000, A.D. 2026-Jun-20 00:00:00.0000, 3.108545143222861E+08, -2.885271819823680E+07, 9.098462547283754E+06,
2461218.500000000, A.D. 2026-Jun-27 00:00:00.0000, 3.101098403633760E+08, -1.594532007085582E+07, 8.943343758056493E+06,
2461225.500000000, A.D. 2026-Jul-04 00:00:00.0000, 3.088630919019217E+08, -3.012180054016000E+06, 8.773743903484574E+06,
2461232.500000000, A.D. 2026-Jul-11 00:00:00.0000, 3.071082562667749E+08, 9.925841809450168E+06, 8.589709650383107E+06,
2461239.500000000, A.D. 2026-Jul-18 00:00:00.0000, 3.048402237684715E+08, 2.284720424663097E+07, 8.391320322435962E+06,
2461246.500000000, A.D. 2026-Jul-25 00:00:00.0000, 3.020548580401567E+08, 3.572972113904893E+07, 8.178689510217702E+06,
2461253.500000000, A.D. 2026-Aug-01 00:00:00.0000, 2.987490662031556E+08, 4.855060502783434E+07, 7.951966584909871E+06,
2461260.500000000, A.D. 2026-Aug-08 00:00:00.0000, 2.949208683215768E+08, 6.128651800837923E+07, 7.711338068492297E+06,
2461267.500000000, A.D. 2026-Aug-15 00:00:00.0000, 2.905694657274871E+08, 7.391363068900451E+07, 7.457028832079083E+06,
2461274.500000000, A.D. 2026-Aug-22 00:00:00.0000, 2.856953065428510E+08, 8.640769057348497E+07, 7.189303264216755E+06,
2461281.500000000, A.D. 2026-Aug-29 00:00:00.0000, 2.803001451524168E+08, 9.874409853469861E+07, 6.908466481549375E+06,
2461288.500000000, A.D. 2026-Sep-05 00:00:00.0000, 2.743870967653273E+08, 1.108979904155900E+08, 6.614865124892436E+06,
$$EOE